GLOBALSTAR3_L_00002007-01
1 21787U 25950LC  26070.40780093  .00000000  00000+0  00000-0 0  9991
2 21787  70.0000 216.0000 0000000   0.0000  86.4000 15.16971413    10
GLOBALSTAR3_L_00002007-02
1 21788U 25904AQ  26070.40780093  .00000000  00000+0  00000-0 0  9991
2 21788  70.0000 216.0000 0000000   0.0000 122.4000 15.16971413    12
GLOBALSTAR3_L_00002007-03
1 21789U 25187OY  26070.40780093  .00000000  00000+0  00000-0 0  9995
2 21789  70.0000 216.0000 0000000   0.0000 158.4000 15.16971413    12
GLOBALSTAR3_L_00002007-04
1 21790U 26134BO  26070.40780093  .00000000  00000+0  00000-0 0  9990
2 21790  70.0000 216.0000 0000000   0.0000 194.4000 15.16971413    14
GLOBALSTAR3_L_00002007-05
1 21791U 24355C   26070.40780093  .00000000  00000+0  00000-0 0  9994
2 21791  70.0000 216.0000 0000000   0.0000 230.4000 15.16971413    16
GLOBALSTAR3_L_00002007-06
1 21792U 24176KW  26070.40780093  .00000000  00000+0  00000-0 0  9996
2 21792  70.0000 216.0000 0000000   0.0000 266.4000 15.16971413    16
GLOBALSTAR3_L_00002007-07
1 21793U 26884QJ  26070.40780093  .00000000  00000+0  00000-0 0  9995
2 21793  70.0000 216.0000 0000000   0.0000 302.4000 15.16971413    18
GLOBALSTAR3_L_00002007-08
1 21794U 22467UQ  26070.40780093  .00000000  00000+0  00000-0 0  9999
2 21794  70.0000 216.0000 0000000   0.0000 338.4000 15.16971413    18
GLOBALSTAR3_L_00002007-09
1 21795U 24302UD  26070.40780093  .00000000  00000+0  00000-0 0  9990
2 21795  70.0000 216.0000 0000000   0.0000  14.4000 15.16971413    10
GLOBALSTAR3_L_00002007-10
1 21796U 22185FU  26070.40780093  .00000000  00000+0  00000-0 0  9998
2 21796  70.0000 216.0000 0000000   0.0000  50.4000 15.16971413    11
GLOBALSTAR3_L_00002008-01
1 21797U 24075AA  26070.40780093  .00000000  00000+0  00000-0 0  9999
2 21797  70.0000 252.0000 0000000   0.0000 100.8000 15.16971413    12
GLOBALSTAR3_L_00002008-02
1 21798U 22860UF  26070.40780093  .00000000  00000+0  00000-0 0  9990
2 21798  70.0000 252.0000 0000000   0.0000 136.8000 15.16971413    12
GLOBALSTAR3_L_00002008-03
1 21799U 26590BJ  26070.40780093  .00000000  00000+0  00000-0 0  9995
2 21799  70.0000 252.0000 0000000   0.0000 172.8000 15.16971413    13
GLOBALSTAR3_L_00002008-04
1 21800U 25607WZ  26070.40780093  .00000000  00000+0  00000-0 0  9996
2 21800  70.0000 252.0000 0000000   0.0000 208.8000 15.16971413    16
GLOBALSTAR3_L_00002008-05
1 21801U 23692LJ  26070.40780093  .00000000  00000+0  00000-0 0  9999
2 21801  70.0000 252.0000 0000000   0.0000 244.8000 15.16971413    17
GLOBALSTAR3_L_00002008-06
1 21802U 26400WK  26070.40780093  .00000000  00000+0  00000-0 0  9990
2 21802  70.0000 252.0000 0000000   0.0000 280.8000 15.16971413    18
GLOBALSTAR3_L_00002008-07
1 21803U 24106VZ  26070.40780093  .00000000  00000+0  00000-0 0  9992
2 21803  70.0000 252.0000 0000000   0.0000 316.8000 15.16971413    19
GLOBALSTAR3_L_00002008-08
1 21804U 26734WL  26070.40780093  .00000000  00000+0  00000-0 0  9992
2 21804  70.0000 252.0000 0000000   0.0000 352.8000 15.16971413    10
GLOBALSTAR3_L_00002008-09
1 21805U 25285AG  26070.40780093  .00000000  00000+0  00000-0 0  9993
2 21805  70.0000 252.0000 0000000   0.0000  28.8000 15.16971413    11
GLOBALSTAR3_L_00002008-10
1 21806U 24099QU  26070.40780093  .00000000  00000+0  00000-0 0  9996
2 21806  70.0000 252.0000 0000000   0.0000  64.8000 15.16971413    12
GLOBALSTAR3_L_00002009-01
1 21807U 26959DI  26070.40780093  .00000000  00000+0  00000-0 0  9994
2 21807  70.0000 288.0000 0000000   0.0000 115.2000 15.16971413    13
GLOBALSTAR3_L_00002009-02
1 21808U 24293NB  26070.40780093  .00000000  00000+0  00000-0 0  9994
2 21808  70.0000 288.0000 0000000   0.0000 151.2000 15.16971413    14
GLOBALSTAR3_L_00002009-03
1 21809U 25649YS  26070.40780093  .00000000  00000+0  00000-0 0  9991
2 21809  70.0000 288.0000 0000000   0.0000 187.2000 15.16971413    14
GLOBALSTAR3_L_00002009-04
1 21810U 24771CV  26070.40780093  .00000000  00000+0  00000-0 0  9998
2 21810  70.0000 288.0000 0000000   0.0000 223.2000 15.16971413    17
GLOBALSTAR3_L_00002009-05
1 21811U 24515UI  26070.40780093  .00000000  00000+0  00000-0 0  9995
2 21811  70.0000 288.0000 0000000   0.0000 259.2000 15.16971413    17
GLOBALSTAR3_L_00002009-06
1 21812U 26194N   26070.40780093  .00000000  00000+0  00000-0 0  9991
2 21812  70.0000 288.0000 0000000   0.0000 295.2000 15.16971413    18
GLOBALSTAR3_L_00002009-07
1 21813U 26901YU  26070.40780093  .00000000  00000+0  00000-0 0  9998
2 21813  70.0000 288.0000 0000000   0.0000 331.2000 15.16971413    10
GLOBALSTAR3_L_00002009-08
1 21814U 25877AS  26070.40780093  .00000000  00000+0  00000-0 0  9990
2 21814  70.0000 288.0000 0000000   0.0000   7.2000 15.16971413    11
GLOBALSTAR3_L_00002009-09
1 21815U 25265PM  26070.40780093  .00000000  00000+0  00000-0 0  9992
2 21815  70.0000 288.0000 0000000   0.0000  43.2000 15.16971413    12
GLOBALSTAR3_L_00002009-10
1 21816U 26388WX  26070.40780093  .00000000  00000+0  00000-0 0  9990
2 21816  70.0000 288.0000 0000000   0.0000  79.2000 15.16971413    12
GLOBALSTAR3_L_00002010-01
1 21817U 22122U   26070.40780093  .00000000  00000+0  00000-0 0  9993
2 21817  70.0000 324.0000 0000000   0.0000 129.6000 15.16971413    14
GLOBALSTAR3_L_00002010-02
1 21818U 24582ZV  26070.40780093  .00000000  00000+0  00000-0 0  9996
2 21818  70.0000 324.0000 0000000   0.0000 165.6000 15.16971413    15
GLOBALSTAR3_L_00002010-03
1 21819U 22546NN  26070.40780093  .00000000  00000+0  00000-0 0  9995
2 21819  70.0000 324.0000 0000000   0.0000 201.6000 15.16971413    17
GLOBALSTAR3_L_00002010-04
1 21820U 26241ED  26070.40780093  .00000000  00000+0  00000-0 0  9993
2 21820  70.0000 324.0000 0000000   0.0000 237.6000 15.16971413    18
GLOBALSTAR3_L_00002010-05
1 21821U 26072MC  26070.40780093  .00000000  00000+0  00000-0 0  9996
2 21821  70.0000 324.0000 0000000   0.0000 273.6000 15.16971413    19
GLOBALSTAR3_L_00002010-06
1 21822U 24863ZE  26070.40780093  .00000000  00000+0  00000-0 0  9993
2 21822  70.0000 324.0000 0000000   0.0000 309.6000 15.16971413    10
GLOBALSTAR3_L_00002010-07
1 21823U 25846EL  26070.40780093  .00000000  00000+0  00000-0 0  9996
2 21823  70.0000 324.0000 0000000   0.0000 345.6000 15.16971413    11
GLOBALSTAR3_L_00002010-08
1 21824U 23441AK  26070.40780093  .00000000  00000+0  00000-0 0  9996
2 21824  70.0000 324.0000 0000000   0.0000  21.6000 15.16971413    13
GLOBALSTAR3_L_00002010-09
1 21825U 25667TG  26070.40780093  .00000000  00000+0  00000-0 0  9999
2 21825  70.0000 324.0000 0000000   0.0000  57.6000 15.16971413    13
GLOBALSTAR3_L_00002010-10
1 21826U 26375NX  26070.40780093  .00000000  00000+0  00000-0 0  9997
2 21826  70.0000 324.0000 0000000   0.0000  93.6000 15.16971413    14
